{
    "links": {
        "self": "http://www.neowsapp.com/rest/v1/neo/3789427?api_key=iIulBulltgU6a56xZRHN4H3l9WmuAYTsLGpBGhQ2"
    },
    "id": "3789427",
    "neo_reference_id": "3789427",
    "name": "(2017 VD15)",
    "designation": "2017 VD15",
    "nasa_jpl_url": "http://ssd.jpl.nasa.gov/sbdb.cgi?sstr=3789427",
    "absolute_magnitude_h": 25.8,
    "estimated_diameter": {
        "kilometers": {
            "estimated_diameter_min": 0.0183888672,
            "estimated_diameter_max": 0.0411187571
        },
        "meters": {
            "estimated_diameter_min": 18.388867207,
            "estimated_diameter_max": 41.1187571041
        },
        "miles": {
            "estimated_diameter_min": 0.0114263088,
            "estimated_diameter_max": 0.0255500032
        },
        "feet": {
            "estimated_diameter_min": 60.3309310875,
            "estimated_diameter_max": 134.9040630575
        }
    },
    "is_potentially_hazardous_asteroid": false,
    "close_approach_data": [
        {
            "close_approach_date": "2017-11-11",
            "close_approach_date_full": "2017-Nov-11 07:22",
            "epoch_date_close_approach": 1510384920000,
            "relative_velocity": {
                "kilometers_per_second": "5.7085581495",
                "kilometers_per_hour": "20550.8093383716",
                "miles_per_hour": "12769.4737247232"
            },
            "miss_distance": {
                "astronomical": "0.0424520546",
                "lunar": "16.5138492394",
                "kilometers": "6350736.945283702",
                "miles": "3946164.9516990076"
            },
            "orbiting_body": "Earth"
        }
    ],
    "orbital_data": {
        "orbit_id": "5",
        "orbit_determination_date": "2017-11-28 06:49:01",
        "first_observation_date": "2017-11-15",
        "last_observation_date": "2017-11-27",
        "data_arc_in_days": 12,
        "observations_used": 71,
        "orbit_uncertainty": "7",
        "minimum_orbit_intersection": ".0373263",
        "jupiter_tisserand_invariant": "3.894",
        "epoch_osculation": "2459000.5",
        "eccentricity": ".4421772911240714",
        "semi_major_axis": "1.840594488760116",
        "inclination": "1.029932474021892",
        "ascending_node_longitude": "85.78387574572707",
        "orbital_period": "912.0856077115949",
        "perihelion_distance": "1.026725403662273",
        "perihelion_argument": "314.4296180192487",
        "aphelion_distance": "2.654463573857959",
        "perihelion_time": "2458974.330492199616",
        "mean_anomaly": "10.32909929559729",
        "mean_motion": ".3946997923837797",
        "equinox": "J2000",
        "orbit_class": {
            "orbit_class_type": "AMO",
            "orbit_class_description": "Near-Earth asteroid orbits similar to that of 1221 Amor",
            "orbit_class_range": "1.017 AU < q (perihelion) < 1.3 AU"
        }
    },
    "is_sentry_object": false
}